[{"OBJECT_NAME":"TEMPSAT 1","OBJECT_ID":"1965-065E","EPOCH":"2026-03-09T23:04:19.834752","MEAN_MOTION":13.33589233,"ECCENTRICITY":0.00702466,"INCLINATION":89.9938,"RA_OF_ASC_NODE":212.5862,"ARG_OF_PERICENTER":165.9273,"MEAN_ANOMALY":317.9391,"EPHEMERIS_TYPE":0,"CLASSIFICATION_TYPE":"U","NORAD_CAT_ID":1512,"ELEMENT_SET_NO":999,"REV_AT_EPOCH":94682,"BSTAR":8.3668831e-5,"MEAN_MOTION_DOT":5.1e-7,"MEAN_MOTION_DDOT":0},{"OBJECT_NAME":"DELTA 2 DEB","OBJECT_ID":"1992-019D","EPOCH":"2026-03-07T05:06:34.515072","MEAN_MOTION":14.01191102,"ECCENTRICITY":0.0994613,"INCLINATION":34.5607,"RA_OF_ASC_NODE":114.3993,"ARG_OF_PERICENTER":145.7387,"MEAN_ANOMALY":221.1702,"EPHEMERIS_TYPE":0,"CLASSIFICATION_TYPE":"U","NORAD_CAT_ID":26791,"ELEMENT_SET_NO":999,"REV_AT_EPOCH":72995,"BSTAR":0.00060994,"MEAN_MOTION_DOT":0.00613618,"MEAN_MOTION_DDOT":9.8744e-7}]
